NORAD_CAT_ID,OBJECT_NAME,OBJECT_TYPE,EPOCH,MEAN_MOTION,ECCENTRICITY,INCLINATION,RA_OF_ASC_NODE,ARG_OF_PERICENTER,MEAN_ANOMALY,BSTAR,MEAN_MOTION_DOT,MEAN_MOTION_DDOT,TLE_LINE0,TLE_LINE1,TLE_LINE2,SEMIMAJOR_AXIS,PERIOD,APOGEE,PERIGEE,DECAYED
54187.0,STARLINK-5240,PAYLOAD,2023-05-20 16:58:12,15.0885545,9.69e-05,53.2173,280.7797,86.7438,273.3665,0.00021338,3.111e-05,0.0,0 STARLINK-5240,1 54187U 22141AG  23140.70708669  .00003111  00000-0  21338-3 0  9994,2 54187  53.2173 280.7797 0000969  86.7438 273.3665 15.08855450 31500,6917.833,95.437,540.369,539.028,0.0
54187.0,STARLINK-5240,PAYLOAD,2023-05-21 02:30:32,15.08842848,0.000119,53.2162,278.9965,76.0447,284.0678,8.8383e-05,1.119e-05,0.0,0 STARLINK-5240,1 54187U 22141AG  23141.10453800  .00001119  00000-0  88383-4 0  9993,2 54187  53.2162 278.9965 0001190  76.0447 284.0678 15.08842848 31569,6917.872,95.437,540.56,538.913,0.0
54187.0,STARLINK-5240,PAYLOAD,2023-05-21 08:52:04,15.08838532,0.000118,53.2155,277.8093,69.0973,291.0146,6.0802e-05,6.8e-06,0.0,0 STARLINK-5240,1 54187U 22141AG  23141.36949937  .00000680  00000-0  60802-4 0  9990,2 54187  53.2155 277.8093 0001180  69.0973 291.0146 15.08838532 31378,6917.885,95.438,540.566,538.934,0.0
54187.0,STARLINK-5240,PAYLOAD,2023-05-21 15:13:37,15.08831915,9.93e-05,53.2156,276.6182,70.4167,289.6932,-1.1386e-05,-4.69e-06,0.0,0 STARLINK-5240,1 54187U 22141AG  23141.63446376 -.00000469  00000-0 -11386-4 0  9999,2 54187  53.2156 276.6182 0000993  70.4167 289.6932 15.08831915 31641,6917.905,95.438,540.457,539.083,0.0
54187.0,STARLINK-5240,PAYLOAD,2023-05-22 08:42:52,15.0884273,0.0001249,53.2172,273.3479,68.2768,291.8357,0.00010608,1.401e-05,0.0,0 STARLINK-5240,1 54187U 22141AG  23142.36310252  .00001401  00000-0  10608-3 0  9993,2 54187  53.2172 273.3479 0001249  68.2768 291.8357 15.08842730 31754,6917.872,95.437,540.601,538.873,0.0
54187.0,STARLINK-5240,PAYLOAD,2023-05-22 15:04:24,15.08844894,0.0001341,53.2172,272.1582,63.1439,296.9691,0.00021571,3.147e-05,0.0,0 STARLINK-5240,1 54187U 22141AG  23142.62806235  .00003147  00000-0  21571-3 0  9993,2 54187  53.2172 272.1582 0001341  63.1439 296.9691 15.08844894 31567,6917.865,95.437,540.658,538.803,0.0
54187.0,STARLINK-5240,PAYLOAD,2023-05-23 11:44:25,15.08840231,0.0001284,53.2163,268.2925,60.8705,299.2416,0.00012192,1.653e-05,0.0,0 STARLINK-5240,1 54187U 22141AG  23143.48918617  .00001653  00000-0  12192-3 0  9995,2 54187  53.2163 268.2925 0001284  60.8705 299.2416 15.08840231 31922,6917.88,95.438,540.633,538.856,0.0
54187.0,STARLINK-5240,PAYLOAD,2023-05-23 14:55:12,15.08839261,0.0001237,53.2163,267.6978,60.7743,299.3372,0.00019296,2.784e-05,0.0,0 STARLINK-5240,1 54187U 22141AG  23143.62166730  .00002784  00000-0  19296-3 0  9990,2 54187  53.2163 267.6978 0001237  60.7743 299.3372 15.08839261 31712,6917.883,95.438,540.603,538.892,0.0
54187.0,STARLINK-5240,PAYLOAD,2023-05-24 14:45:58,15.08842267,0.0001132,53.2164,263.2377,74.965,285.1467,9.998e-05,1.304e-05,0.0,0 STARLINK-5240,1 54187U 22141AG  23144.61526521  .00001304  00000-0  99980-4 0  9994,2 54187  53.2164 263.2377 0001132  74.9650 285.1467 15.08842267 32096,6917.873,95.437,540.522,538.955,0.0
54187.0,STARLINK-5240,PAYLOAD,2023-05-25 17:47:32,15.08843328,0.0001093,53.2173,258.1787,79.312,280.7996,0.00010369,1.363e-05,0.0,0 STARLINK-5240,1 54187U 22141AG  23145.74134336  .00001363  00000-0  10369-3 0  9996,2 54187  53.2173 258.1787 0001093  79.3120 280.7996 15.08843328 32267,6917.87,95.437,540.491,538.979,0.0
54187.0,STARLINK-5240,PAYLOAD,2023-05-26 12:52:09,15.08842689,9.67e-05,53.2175,254.6087,89.7282,270.3821,6.607e-05,7.64e-06,0.0,0 STARLINK-5240,1 54187U 22141AG  23146.53622417  .00000764  00000-0  66070-4 0  9991,2 54187  53.2175 254.6087 0000967  89.7282 270.3821 15.08842689 32155,6917.872,95.437,540.406,539.068,0.0
54187.0,STARLINK-5240,PAYLOAD,2023-05-26 16:02:55,15.08844646,0.000107,53.2175,254.0138,96.4351,263.6763,0.00010145,1.327e-05,0.0,0 STARLINK-5240,1 54187U 22141AG  23146.66870184  .00001327  00000-0  10145-3 0  9998,2 54187  53.2175 254.0138 0001070  96.4351 263.6763 15.08844646 32171,6917.866,95.437,540.471,538.991,0.0
54187.0,STARLINK-5240,PAYLOAD,2023-05-26 23:59:51,15.08844017,8.16e-05,53.2175,252.5276,94.2747,265.8338,9.199e-06,-1.41e-06,0.0,0 STARLINK-5240,1 54187U 22141AG  23146.99990305 -.00000141  00000-0  91990-5 0  9995,2 54187  53.2175 252.5276 0000816  94.2747 265.8338 15.08844017 32454,6917.868,95.437,540.298,539.169,0.0
54187.0,STARLINK-5240,PAYLOAD,2023-05-27 11:07:34,15.08838074,8.9e-05,53.2166,250.4492,94.3902,265.7192,3.16e-05,2.15e-06,0.0,0 STARLINK-5240,1 54187U 22141AG  23147.46358863  .00000215  00000-0  31600-4 0  9997,2 54187  53.2166 250.4492 0000890  94.3902 265.7192 15.08838074 32528,6917.886,95.438,540.367,539.136,0.0
54187.0,STARLINK-5240,PAYLOAD,2023-05-27 15:53:43,15.08844966,8.46e-05,53.2163,249.5574,102.5407,257.568,1.0048e-05,-1.28e-06,0.0,0 STARLINK-5240,1 54187U 22141AG  23147.66230446 -.00000128  00000-0  10048-4 0  9992,2 54187  53.2163 249.5574 0000846 102.5407 257.5680 15.08844966 32324,6917.865,95.437,540.315,539.145,0.0
54187.0,STARLINK-5240,PAYLOAD,2023-05-28 14:09:06,15.08848827,8.63e-05,53.2163,245.3946,92.6028,267.5063,9.1363e-05,1.167e-05,0.0,0 STARLINK-5240,1 54187U 22141AG  23148.58966016  .00001167  00000-0  91363-4 0  9995,2 54187  53.2163 245.3946 0000863  92.6028 267.5063 15.08848827 32469,6917.853,95.437,540.315,539.121,0.0
54187.0,STARLINK-5240,PAYLOAD,2023-05-28 23:41:25,15.08839784,8.58e-05,53.2161,243.6107,105.5206,254.5881,0.00016895,2.402e-05,0.0,0 STARLINK-5240,1 54187U 22141AG  23148.98710357  .00002402  00000-0  16895-3 0  9993,2 54187  53.2161 243.6107 0000858 105.5206 254.5881 15.08839784 32751,6917.881,95.438,540.34,539.152,0.0
54187.0,STARLINK-5240,PAYLOAD,2023-05-29 12:24:30,15.08842431,8.32e-05,53.2162,241.2312,103.6721,256.4364,7.6221e-05,9.26e-06,0.0,0 STARLINK-5240,1 54187U 22141AG  23149.51702303  .00000926  00000-0  76221-4 0  9994,2 54187  53.2162 241.2312 0000832 103.6721 256.4364 15.08842431 32601,6917.873,95.437,540.314,539.162,0.0
54187.0,STARLINK-5240,PAYLOAD,2023-05-29 23:32:13,15.08838151,8.03e-05,53.2158,239.1508,92.0805,268.0279,3.2472e-05,2.29e-06,0.0,0 STARLINK-5240,1 54187U 22141AG  23149.98070711  .00000229  00000-0  32472-4 0  9992,2 54187  53.2158 239.1508 0000803  92.0805 268.0279 15.08838151 32902,6917.886,95.438,540.307,539.196,0.0
54187.0,STARLINK-5240,PAYLOAD,2023-05-30 12:15:18,15.08839407,8.56e-05,53.216,236.7719,89.531,270.578,-3.0273e-05,-7.69e-06,0.0,0 STARLINK-5240,1 54187U 22141AG  23150.51062836 -.00000769  00000-0 -30273-4 0  9990,2 54187  53.2160 236.7719 0000856  89.5310 270.5780 15.08839407 32755,6917.882,95.438,540.339,539.155,0.0
54187.0,STARLINK-5240,PAYLOAD,2023-05-31 10:30:41,15.08840049,8.91e-05,53.2165,232.6092,84.3933,275.716,5.9162e-05,6.54e-06,0.0,0 STARLINK-5240,1 54187U 22141AG  23151.43798577  .00000654  00000-0  59162-4 0  9999,2 54187  53.2165 232.6092 0000891  84.3933 275.7160 15.08840049 33127,6917.88,95.438,540.362,539.129,0.0
54187.0,STARLINK-5240,PAYLOAD,2023-05-31 12:06:04,15.08842131,9.3e-05,53.2166,232.3119,79.6773,280.4324,6.8745e-05,8.07e-06,0.0,0 STARLINK-5240,1 54187U 22141AG  23151.50422438  .00000807  00000-0  68745-4 0  9994,2 54187  53.2166 232.3119 0000930  79.6773 280.4324 15.08842131 32902,6917.874,95.437,540.382,539.096,0.0
54187.0,STARLINK-5240,PAYLOAD,2023-06-01 10:21:29,15.08838195,8.35e-05,53.2162,228.1454,96.7278,263.3809,8.9573e-05,1.138e-05,0.0,0 STARLINK-5240,1 54187U 22141AG  23152.43158645  .00001138  00000-0  89573-4 0  9993,2 54187  53.2162 228.1454 0000835  96.7278 263.3809 15.08838195 33046,6917.886,95.438,540.329,539.173,0.0
54187.0,STARLINK-5240,PAYLOAD,2023-06-01 21:29:11,15.08838935,9.02e-05,53.2161,226.0625,66.9054,293.2033,6.0815e-05,6.8e-06,0.0,0 STARLINK-5240,1 54187U 22141AG  23152.89526804  .00000680  00000-0  60815-4 0  9998,2 54187  53.2161 226.0625 0000902  66.9054 293.2033 15.08838935 33344,6917.884,95.438,540.373,539.125,0.0
54187.0,STARLINK-5240,PAYLOAD,2023-06-02 11:47:39,15.08838702,8.38e-05,53.2161,223.3904,95.7684,264.3403,9.5746e-06,-1.35e-06,0.0,0 STARLINK-5240,1 54187U 22141AG  23153.49143085 -.00000135  00000-0  95746-5 0  9999,2 54187  53.2161 223.3904 0000838  95.7684 264.3403 15.08838702 33208,6917.884,95.438,540.329,539.17,0.0
54187.0,STARLINK-5240,PAYLOAD,2023-06-02 21:19:58,15.08836034,8.08e-05,53.216,221.6066,93.2508,266.8576,1.4979e-05,-4.9e-07,0.0,0 STARLINK-5240,1 54187U 22141AG  23153.88887293 -.00000049  00000-0  14979-4 0  9990,2 54187  53.2160 221.6066 0000808  93.2508 266.8576 15.08836034 33262,6917.893,95.438,540.316,539.199,0.0
54187.0,STARLINK-5240,PAYLOAD,2023-06-03 11:38:26,15.0883595,8.22e-05,53.216,218.9301,88.8482,271.2604,2.8731e-05,1.7e-06,0.0,0 STARLINK-5240,1 54187U 22141AG  23154.48503430  .00000170  00000-0  28731-4 0  9990,2 54187  53.2160 218.9301 0000822  88.8482 271.2604 15.08835950 33358,6917.893,95.438,540.326,539.189,0.0
54187.0,STARLINK-5240,PAYLOAD,2023-06-03 21:10:45,15.08836702,9.33e-05,53.2168,217.1459,88.5835,271.5264,4.7251e-05,4.64e-06,0.0,0 STARLINK-5240,1 54187U 22141AG  23154.88247440  .00000464  00000-0  47251-4 0  9994,2 54187  53.2168 217.1459 0000933  88.5835 271.5264 15.08836702 33411,6917.89,95.438,540.401,539.11,0.0
54187.0,STARLINK-5240,PAYLOAD,2023-06-04 09:53:50,15.08839248,8.73e-05,53.2165,214.7668,86.2764,273.8328,7.3508e-05,8.82e-06,0.0,0 STARLINK-5240,1 54187U 22141AG  23155.41239288  .00000882  00000-0  73508-4 0  9993,2 54187  53.2165 214.7668 0000873  86.2764 273.8328 15.08839248 33720,6917.883,95.438,540.352,539.144,0.0
54187.0,STARLINK-5240,PAYLOAD,2023-06-04 11:29:13,15.08839746,8.66e-05,53.2164,214.4694,85.1645,274.9446,7.5621e-05,9.16e-06,0.0,0 STARLINK-5240,1 54187U 22141AG  23155.47863241  .00000916  00000-0  75621-4 0  9997,2 54187  53.2164 214.4694 0000866  85.1645 274.9446 15.08839746 33505,6917.881,95.438,540.345,539.147,0.0
